{
  "type": "FeatureCollection",
  "features": [
    {
      "type": "Feature",
      "properties": {
        "name": "日本 (Japan)",
        "value": 6481
      },
      "geometry": {
        "type": "Point",
        "coordinates": [
          139.2394179,
          36.5748441
        ]
      }
    },
    {
      "type": "Feature",
      "properties": {
        "name": "オランダ (Netherlands)",
        "value": 766
      },
      "geometry": {
        "type": "Point",
        "coordinates": [
          5.6343227,
          52.2434979
        ]
      }
    },
    {
      "type": "Feature",
      "properties": {
        "name": "アメリカ合衆国 (United States)",
        "value": 246
      },
      "geometry": {
        "type": "Point",
        "coordinates": [
          -100.445882,
          39.7837304
        ]
      }
    },
    {
      "type": "Feature",
      "properties": {
        "name": "台湾 (Taiwan)",
        "value": 87
      },
      "geometry": {
        "type": "Point",
        "coordinates": [
          120.9820179,
          23.9739374
        ]
      }
    },
    {
      "type": "Feature",
      "properties": {
        "name": "インド (India)",
        "value": 83
      },
      "geometry": {
        "type": "Point",
        "coordinates": [
          78.6677428,
          22.3511148
        ]
      }
    },
    {
      "type": "Feature",
      "properties": {
        "name": "香港 (Hong Kong)",
        "value": 41
      },
      "geometry": {
        "type": "Point",
        "coordinates": [
          114.1628907,
          22.2792968
        ]
      }
    },
    {
      "type": "Feature",
      "properties": {
        "name": "韓国 (South Korea)",
        "value": 38
      },
      "geometry": {
        "type": "Point",
        "coordinates": [
          127.6961188,
          36.638392
        ]
      }
    },
    {
      "type": "Feature",
      "properties": {
        "name": "中国 (China)",
        "value": 37
      },
      "geometry": {
        "type": "Point",
        "coordinates": [
          104.999927,
          35.000074
        ]
      }
    },
    {
      "type": "Feature",
      "properties": {
        "name": "イギリス (United Kingdom)",
        "value": 24
      },
      "geometry": {
        "type": "Point",
        "coordinates": [
          -3.2765753,
          54.7023545
        ]
      }
    },
    {
      "type": "Feature",
      "properties": {
        "name": "ドイツ (Germany)",
        "value": 23
      },
      "geometry": {
        "type": "Point",
        "coordinates": [
          10.4478313,
          51.1638175
        ]
      }
    },
    {
      "type": "Feature",
      "properties": {
        "name": "インドネシア (Indonesia)",
        "value": 19
      },
      "geometry": {
        "type": "Point",
        "coordinates": [
          117.8902853,
          -2.4833826
        ]
      }
    },
    {
      "type": "Feature",
      "properties": {
        "name": "オーストラリア (Australia)",
        "value": 15
      },
      "geometry": {
        "type": "Point",
        "coordinates": [
          134.755,
          -24.7761086
        ]
      }
    },
    {
      "type": "Feature",
      "properties": {
        "name": "シンガポール (Singapore)",
        "value": 15
      },
      "geometry": {
        "type": "Point",
        "coordinates": [
          103.8194992,
          1.357107
        ]
      }
    },
    {
      "type": "Feature",
      "properties": {
        "name": "ブラジル (Brazil)",
        "value": 14
      },
      "geometry": {
        "type": "Point",
        "coordinates": [
          -53.2,
          -10.3333333
        ]
      }
    },
    {
      "type": "Feature",
      "properties": {
        "name": "ルーマニア (Romania)",
        "value": 12
      },
      "geometry": {
        "type": "Point",
        "coordinates": [
          24.6859225,
          45.9852129
        ]
      }
    },
    {
      "type": "Feature",
      "properties": {
        "name": "スペイン (Spain)",
        "value": 12
      },
      "geometry": {
        "type": "Point",
        "coordinates": [
          -4.8379791,
          39.3260685
        ]
      }
    },
    {
      "type": "Feature",
      "properties": {
        "name": "フランス (France)",
        "value": 10
      },
      "geometry": {
        "type": "Point",
        "coordinates": [
          1.8883335,
          46.603354
        ]
      }
    },
    {
      "type": "Feature",
      "properties": {
        "name": "ベトナム (Vietnam)",
        "value": 10
      },
      "geometry": {
        "type": "Point",
        "coordinates": [
          107.9650855,
          15.9266657
        ]
      }
    },
    {
      "type": "Feature",
      "properties": {
        "name": "マレーシア (Malaysia)",
        "value": 9
      },
      "geometry": {
        "type": "Point",
        "coordinates": [
          102.2656823,
          4.5693754
        ]
      }
    },
    {
      "type": "Feature",
      "properties": {
        "name": "フィリピン (Philippines)",
        "value": 9
      },
      "geometry": {
        "type": "Point",
        "coordinates": [
          122.7312101,
          12.7503486
        ]
      }
    },
    {
      "type": "Feature",
      "properties": {
        "name": "ポーランド (Poland)",
        "value": 9
      },
      "geometry": {
        "type": "Point",
        "coordinates": [
          19.134422,
          52.215933
        ]
      }
    },
    {
      "type": "Feature",
      "properties": {
        "name": "コロンビア (Colombia)",
        "value": 7
      },
      "geometry": {
        "type": "Point",
        "coordinates": [
          -72.9088133,
          4.099917
        ]
      }
    },
    {
      "type": "Feature",
      "properties": {
        "name": "エクアドル (Ecuador)",
        "value": 7
      },
      "geometry": {
        "type": "Point",
        "coordinates": [
          -79.3666965,
          -1.3397668
        ]
      }
    },
    {
      "type": "Feature",
      "properties": {
        "name": "バングラデシュ (Bangladesh)",
        "value": 6
      },
      "geometry": {
        "type": "Point",
        "coordinates": [
          90.2934413,
          24.4769288
        ]
      }
    },
    {
      "type": "Feature",
      "properties": {
        "name": "ニュージーランド (New Zealand)",
        "value": 6
      },
      "geometry": {
        "type": "Point",
        "coordinates": [
          172.8344077,
          -41.5000831
        ]
      }
    },
    {
      "type": "Feature",
      "properties": {
        "name": "タイ (Thailand)",
        "value": 6
      },
      "geometry": {
        "type": "Point",
        "coordinates": [
          100.83273,
          14.8971921
        ]
      }
    },
    {
      "type": "Feature",
      "properties": {
        "name": "カナダ (Canada)",
        "value": 5
      },
      "geometry": {
        "type": "Point",
        "coordinates": [
          -107.991707,
          61.0666922
        ]
      }
    },
    {
      "type": "Feature",
      "properties": {
        "name": "フィンランド (Finland)",
        "value": 4
      },
      "geometry": {
        "type": "Point",
        "coordinates": [
          25.9209164,
          63.2467777
        ]
      }
    },
    {
      "type": "Feature",
      "properties": {
        "name": "エストニア (Estonia)",
        "value": 3
      },
      "geometry": {
        "type": "Point",
        "coordinates": [
          25.3319078,
          58.7523778
        ]
      }
    },
    {
      "type": "Feature",
      "properties": {
        "name": "リトアニア (Lithuania)",
        "value": 3
      },
      "geometry": {
        "type": "Point",
        "coordinates": [
          23.7499997,
          55.3500003
        ]
      }
    },
    {
      "type": "Feature",
      "properties": {
        "name": "メキシコ (Mexico)",
        "value": 3
      },
      "geometry": {
        "type": "Point",
        "coordinates": [
          -102.0077097,
          23.6585116
        ]
      }
    },
    {
      "type": "Feature",
      "properties": {
        "name": "チェコ (Czechia)",
        "value": 2
      },
      "geometry": {
        "type": "Point",
        "coordinates": [
          15.3381061,
          49.7439047
        ]
      }
    },
    {
      "type": "Feature",
      "properties": {
        "name": "イタリア (Italy)",
        "value": 2
      },
      "geometry": {
        "type": "Point",
        "coordinates": [
          12.674297,
          42.6384261
        ]
      }
    },
    {
      "type": "Feature",
      "properties": {
        "name": "ポルトガル (Portugal)",
        "value": 2
      },
      "geometry": {
        "type": "Point",
        "coordinates": [
          -8.1353519,
          39.6621648
        ]
      }
    },
    {
      "type": "Feature",
      "properties": {
        "name": "ロシア (Russia)",
        "value": 2
      },
      "geometry": {
        "type": "Point",
        "coordinates": [
          97.7453061,
          64.6863136
        ]
      }
    },
    {
      "type": "Feature",
      "properties": {
        "name": "スウェーデン (Sweden)",
        "value": 2
      },
      "geometry": {
        "type": "Point",
        "coordinates": [
          14.5208584,
          59.6749712
        ]
      }
    },
    {
      "type": "Feature",
      "properties": {
        "name": "Macao (Macao)",
        "value": 1
      },
      "geometry": {
        "type": "Point",
        "coordinates": [
          113.5514142,
          22.1757605
        ]
      }
    },
    {
      "type": "Feature",
      "properties": {
        "name": " Republic of (Moldova)",
        "value": 1
      },
      "geometry": {
        "type": "Point",
        "coordinates": [
          28.5670941,
          47.2879608
        ]
      }
    },
    {
      "type": "Feature",
      "properties": {
        "name": "プエルトリコ (Puerto Rico)",
        "value": 1
      },
      "geometry": {
        "type": "Point",
        "coordinates": [
          -66.4858295,
          18.2247706
        ]
      }
    },
    {
      "type": "Feature",
      "properties": {
        "name": "サウジアラビア (Saudi Arabia)",
        "value": 1
      },
      "geometry": {
        "type": "Point",
        "coordinates": [
          42.3528328,
          25.6242618
        ]
      }
    },
    {
      "type": "Feature",
      "properties": {
        "name": "スイス (Switzerland)",
        "value": 1
      },
      "geometry": {
        "type": "Point",
        "coordinates": [
          8.2319736,
          46.7985624
        ]
      }
    },
    {
      "type": "Feature",
      "properties": {
        "name": "トルコ (Türkiye)",
        "value": 1
      },
      "geometry": {
        "type": "Point",
        "coordinates": [
          35.2316631,
          39.294076
        ]
      }
    },
    {
      "type": "Feature",
      "properties": {
        "name": "ウクライナ (Ukraine)",
        "value": 1
      },
      "geometry": {
        "type": "Point",
        "coordinates": [
          31.2718321,
          49.4871968
        ]
      }
    },
    {
      "type": "Feature",
      "properties": {
        "name": " Bolivarian Republic of (Venezuela)",
        "value": 1
      },
      "geometry": {
        "type": "Point",
        "coordinates": [
          -66.1109318,
          8.0018709
        ]
      }
    }
  ]
}